[{"OBJECT_NAME":"STARLINK-30873","OBJECT_ID":"2023-171V","EPOCH":"2026-03-09T22:00:01.999584","MEAN_MOTION":15.26671592,"ECCENTRICITY":0.00011318,"INCLINATION":42.9997,"RA_OF_ASC_NODE":283.5385,"ARG_OF_PERICENTER":303.4192,"MEAN_ANOMALY":66.6377,"EPHEMERIS_TYPE":0,"CLASSIFICATION_TYPE":"U","NORAD_CAT_ID":58249,"ELEMENT_SET_NO":999,"REV_AT_EPOCH":577,"BSTAR":0.0023010917,"MEAN_MOTION_DOT":0.00061854,"MEAN_MOTION_DDOT":0},{"OBJECT_NAME":"SL-24 DEB","OBJECT_ID":"2013-066AL","EPOCH":"2026-03-09T22:28:39.180576","MEAN_MOTION":15.26992446,"ECCENTRICITY":0.00036318,"INCLINATION":97.3978,"RA_OF_ASC_NODE":75.9402,"ARG_OF_PERICENTER":273.216,"MEAN_ANOMALY":86.8663,"EPHEMERIS_TYPE":0,"CLASSIFICATION_TYPE":"U","NORAD_CAT_ID":39450,"ELEMENT_SET_NO":999,"REV_AT_EPOCH":67244,"BSTAR":0.00070559472,"MEAN_MOTION_DOT":0.00018651,"MEAN_MOTION_DDOT":0}]
